{"type": "FeatureCollection", "features": [ {"type": "Feature", "properties": {"norad_id": 35290, "name": "COSMOS 2251 DEB", "group": "cosmos-2251-debris", "lat": -28.212896202166046, "lon": 33.06044966097905, "alt_km": 633.8726345935665, "timestamp": "2025-12-21T14:40:48.314828+00:00", "meta": {"OBJECT_NAME": "COSMOS 2251 DEB", "OBJECT_ID": "1993-036AJU", "EPOCH": "2025-12-20T03:08:10.287168", "MEAN_MOTION": 14.80565596, "ECCENTRICITY": 0.00016036, "INCLINATION": 74.0049, "RA_OF_ASC_NODE": 44.8368, "ARG_OF_PERICENTER": 190.188, "MEAN_ANOMALY": 169.9265, "EPHEMERIS_TYPE": 0, "CLASSIFICATION_TYPE": "U", "NORAD_CAT_ID": 35290, "ELEMENT_SET_NO": 999, "REV_AT_EPOCH": 88067, "BSTAR": 0.0010027753, "MEAN_MOTION_DOT": 7.664e-05, "MEAN_MOTION_DDOT": 0}, "tle": {"line1": "1 35290U 93036AJU 25354.13067462  .00007664  00000+0  10028-2 0  9993", "line2": "2 35290  74.0049  44.8368 0001603 190.1880 169.9265 14.80565596880671"}}, "geometry": {"type": "Point", "coordinates": [33.06044966097905, -28.212896202166046]}}, {"type": "Feature", "properties": {"norad_id": 35432, "name": "COSMOS 2251 DEB", "group": "cosmos-2251-debris", "lat": 39.04531883712263, "lon": 163.38942868071447, "alt_km": 498.51983129883683, "timestamp": "2025-12-21T14:40:48.314838+00:00", "meta": {"OBJECT_NAME": "COSMOS 2251 DEB", "OBJECT_ID": "1993-036AKA", "EPOCH": "2025-12-20T17:35:33.735840", "MEAN_MOTION": 15.24099231, "ECCENTRICITY": 0.0012488, "INCLINATION": 74.0209, "RA_OF_ASC_NODE": 358.6833, "ARG_OF_PERICENTER": 327.8033, "MEAN_ANOMALY": 32.2402, "EPHEMERIS_TYPE": 0, "CLASSIFICATION_TYPE": "U", "NORAD_CAT_ID": 35432, "ELEMENT_SET_NO": 999, "REV_AT_EPOCH": 87625, "BSTAR": 0.0017866286, "MEAN_MOTION_DOT": 0.00043728, "MEAN_MOTION_DDOT": 0}, "tle": {"line1": "1 35432U 93036AKA 25354.73302935  .00043728  00000+0  17866-2 0  9992", "line2": "2 35432  74.0209 358.6833 0012488 327.8033  32.2402 15.24099231876253"}}, "geometry": {"type": "Point", "coordinates": [163.38942868071447, 39.04531883712263]}}, {"type": "Feature", "properties": {"norad_id": 35433, "name": "COSMOS 2251 DEB", "group": "cosmos-2251-debris", "lat": -0.9145334524642932, "lon": -38.06465358731789, "alt_km": 761.0764182446155, "timestamp": "2025-12-21T14:40:48.314848+00:00", "meta": {"OBJECT_NAME": "COSMOS 2251 DEB", "OBJECT_ID": "1993-036AKB", "EPOCH": "2025-12-10T18:27:52.031808", "MEAN_MOTION": 14.34742553, "ECCENTRICITY": 0.00254013, "INCLINATION": 74.0339, "RA_OF_ASC_NODE": 342.0559, "ARG_OF_PERICENTER": 37.4572, "MEAN_ANOMALY": 142.4072, "EPHEMERIS_TYPE": 0, "CLASSIFICATION_TYPE": "U", "NORAD_CAT_ID": 35433, "ELEMENT_SET_NO": 999, "REV_AT_EPOCH": 86552, "BSTAR": 0.00041847558, "MEAN_MOTION_DOT": 1.164e-05, "MEAN_MOTION_DDOT": 0}, "tle": {"line1": "1 35433U 93036AKB 25344.76935222  .00001164  00000+0  41848-3 0  9992", "line2": "2 35433  74.0339 342.0559 0025401  37.4572 142.4072 14.34742553865528"}}, "geometry": {"type": "Point", "coordinates": [-38.06465358731789, -0.9145334524642932]}}, {"type": "Feature", "properties": {"norad_id": 35434, "name": "COSMOS 2251 DEB", "group": "cosmos-2251-debris", "lat": -13.253683454181285, "lon": -166.24778820879473, "alt_km": 798.8391300911226, "timestamp": "2025-12-21T14:40:48.314858+00:00", "meta": {"OBJECT_NAME": "COSMOS 2251 DEB", "OBJECT_ID": "1993-036AKC", "EPOCH": "2025-12-13T21:29:58.278624", "MEAN_MOTION": 14.25692247, "ECCENTRICITY": 0.00874643, "INCLINATION": 74.0404, "RA_OF_ASC_NODE": 211.5388, "ARG_OF_PERICENTER": 282.0357, "MEAN_ANOMALY": 77.0999, "EPHEMERIS_TYPE": 0, "CLASSIFICATION_TYPE": "U", "NORAD_CAT_ID": 35434, "ELEMENT_SET_NO": 999, "REV_AT_EPOCH": 86134, "BSTAR": 0.00076141319, "MEAN_MOTION_DOT": 1.854e-05, "MEAN_MOTION_DDOT": 0}, "tle": {"line1": "1 35434U 93036AKC 25347.89581341  .00001854  00000+0  76141-3 0  9999", "line2": "2 35434  74.0404 211.5388 0087464 282.0357  77.0999 14.25692247861349"}}, "geometry": {"type": "Point", "coordinates": [-166.24778820879473, -13.253683454181285]}}, {"type": "Feature", "properties": {"norad_id": 35435, "name": "COSMOS 2251 DEB", "group": "cosmos-2251-debris", "lat": 61.57686359540673, "lon": 118.59668741640665, "alt_km": 629.2796822301862, "timestamp": "2025-12-21T14:40:48.314868+00:00", "meta": {"OBJECT_NAME": "COSMOS 2251 DEB", "OBJECT_ID": "1993-036AKD", "EPOCH": "2025-12-18T13:24:14.493312", "MEAN_MOTION": 14.78644291, "ECCENTRICITY": 0.00073996, "INCLINATION": 74.0108, "RA_OF_ASC_NODE": 92.6132, "ARG_OF_PERICENTER": 188.8212, "MEAN_ANOMALY": 191.4596, "EPHEMERIS_TYPE": 0, "CLASSIFICATION_TYPE": "U", "NORAD_CAT_ID": 35435, "ELEMENT_SET_NO": 999, "REV_AT_EPOCH": 87625, "BSTAR": 0.0017393261, "MEAN_MOTION_DOT": 0.0001274, "MEAN_MOTION_DDOT": 0}, "tle": {"line1": "1 35435U 93036AKD 25352.55850108  .00012740  00000+0  17393-2 0  9998", "line2": "2 35435  74.0108  92.6132 0007399 188.8212 191.4596 14.78644291876252"}}, "geometry": {"type": "Point", "coordinates": [118.59668741640665, 61.57686359540673]}}, {"type": "Feature", "properties": {"norad_id": 35439, "name": "COSMOS 2251 DEB", "group": "cosmos-2251-debris", "lat": 41.09049736867757, "lon": -74.9331416388356, "alt_km": 1067.404185726601, "timestamp": "2025-12-21T14:40:48.314878+00:00", "meta": {"OBJECT_NAME": "COSMOS 2251 DEB", "OBJECT_ID": "1993-036AKH", "EPOCH": "2025-12-20T15:40:28.809408", "MEAN_MOTION": 13.92842634, "ECCENTRICITY": 0.0242584, "INCLINATION": 74.0193, "RA_OF_ASC_NODE": 121.1801, "ARG_OF_PERICENTER": 288.7541, "MEAN_ANOMALY": 84.8538, "EPHEMERIS_TYPE": 0, "CLASSIFICATION_TYPE": "U", "NORAD_CAT_ID": 35439, "ELEMENT_SET_NO": 999, "REV_AT_EPOCH": 84071, "BSTAR": 0.0011295, "MEAN_MOTION_DOT": 1.838e-05, "MEAN_MOTION_DDOT": 0}, "tle": {"line1": "1 35439U 93036AKH 25354.65311122  .00001838  00000+0  11295-2 0  9994", "line2": "2 35439  74.0193 121.1801 0242584 288.7541  84.8538 13.92842634840712"}}, "geometry": {"type": "Point", "coordinates": [-74.9331416388356, 41.09049736867757]}}, {"type": "Feature", "properties": {"norad_id": 35440, "name": "COSMOS 2251 DEB", "group": "cosmos-2251-debris", "lat": 60.56058492591091, "lon": -20.092654336812423, "alt_km": 698.9156235887185, "timestamp": "2025-12-21T14:40:48.314888+00:00", "meta": {"OBJECT_NAME": "COSMOS 2251 DEB", "OBJECT_ID": "1993-036AKJ", "EPOCH": "2025-12-17T20:15:19.490976", "MEAN_MOTION": 14.68838958, "ECCENTRICITY": 0.00695054, "INCLINATION": 74.0134, "RA_OF_ASC_NODE": 197.7346, "ARG_OF_PERICENTER": 337.3687, "MEAN_ANOMALY": 22.4422, "EPHEMERIS_TYPE": 0, "CLASSIFICATION_TYPE": "U", "NORAD_CAT_ID": 35440, "ELEMENT_SET_NO": 999, "REV_AT_EPOCH": 68840, "BSTAR": 0.00030670457, "MEAN_MOTION_DOT": 1.824e-05, "MEAN_MOTION_DDOT": 0}, "tle": {"line1": "1 35440U 93036AKJ 25351.84397559  .00001824  00000+0  30670-3 0  9996", "line2": "2 35440  74.0134 197.7346 0069505 337.3687  22.4422 14.68838958688408"}}, "geometry": {"type": "Point", "coordinates": [-20.092654336812423, 60.56058492591091]}}, {"type": "Feature", "properties": {"norad_id": 35441, "name": "COSMOS 2251 DEB", "group": "cosmos-2251-debris", "lat": -48.76340164793759, "lon": 120.13171643107704, "alt_km": 676.8160357922789, "timestamp": "2025-12-21T14:40:48.314898+00:00", "meta": {"OBJECT_NAME": "COSMOS 2251 DEB", "OBJECT_ID": "1993-036AKK", "EPOCH": "2025-12-21T02:08:13.738560", "MEAN_MOTION": 14.62705296, "ECCENTRICITY": 0.00361872, "INCLINATION": 74.1353, "RA_OF_ASC_NODE": 282.196, "ARG_OF_PERICENTER": 175.8941, "MEAN_ANOMALY": 184.2531, "EPHEMERIS_TYPE": 0, "CLASSIFICATION_TYPE": "U", "NORAD_CAT_ID": 35441, "ELEMENT_SET_NO": 999, "REV_AT_EPOCH": 87552, "BSTAR": 0.00090653358, "MEAN_MOTION_DOT": 4.633e-05, "MEAN_MOTION_DDOT": 0}, "tle": {"line1": "1 35441U 93036AKK 25355.08904790  .00004633  00000+0  90653-3 0  9996", "line2": "2 35441  74.1353 282.1960 0036187 175.8941 184.2531 14.62705296875523"}}, "geometry": {"type": "Point", "coordinates": [120.13171643107704, -48.76340164793759]}}, {"type": "Feature", "properties": {"norad_id": 35442, "name": "COSMOS 2251 DEB", "group": "cosmos-2251-debris", "lat": 73.65467435803617, "lon": -176.058297690946, "alt_km": 604.9910192038524, "timestamp": "2025-12-21T14:40:48.314908+00:00", "meta": {"OBJECT_NAME": "COSMOS 2251 DEB", "OBJECT_ID": "1993-036AKL", "EPOCH": "2025-12-20T12:23:11.250816", "MEAN_MOTION": 14.84692405, "ECCENTRICITY": 0.00038306, "INCLINATION": 74.0274, "RA_OF_ASC_NODE": 83.7009, "ARG_OF_PERICENTER": 56.8444, "MEAN_ANOMALY": 303.3101, "EPHEMERIS_TYPE": 0, "CLASSIFICATION_TYPE": "U", "NORAD_CAT_ID": 35442, "ELEMENT_SET_NO": 999, "REV_AT_EPOCH": 87468, "BSTAR": 0.0013094201, "MEAN_MOTION_DOT": 0.00011072, "MEAN_MOTION_DDOT": 0}, "tle": {"line1": "1 35442U 93036AKL 25354.51610244  .00011072  00000+0  13094-2 0  9990", "line2": "2 35442  74.0274  83.7009 0003830  56.8444 303.3101 14.84692405874683"}}, "geometry": {"type": "Point", "coordinates": [-176.058297690946, 73.65467435803617]}}, {"type": "Feature", "properties": {"norad_id": 35443, "name": "COSMOS 2251 DEB", "group": "cosmos-2251-debris", "lat": 14.43511581223796, "lon": 129.3510949898284, "alt_km": 559.3845093072459, "timestamp": "2025-12-21T14:40:48.314918+00:00", "meta": {"OBJECT_NAME": "COSMOS 2251 DEB", "OBJECT_ID": "1993-036AKM", "EPOCH": "2025-12-19T13:50:47.178816", "MEAN_MOTION": 14.97233241, "ECCENTRICITY": 0.007292, "INCLINATION": 73.988, "RA_OF_ASC_NODE": 317.7188, "ARG_OF_PERICENTER": 97.8759, "MEAN_ANOMALY": 263.0711, "EPHEMERIS_TYPE": 0, "CLASSIFICATION_TYPE": "U", "NORAD_CAT_ID": 35443, "ELEMENT_SET_NO": 999, "REV_AT_EPOCH": 86980, "BSTAR": 0.0025283, "MEAN_MOTION_DOT": 0.00031007, "MEAN_MOTION_DDOT": 0}, "tle": {"line1": "1 35443U 93036AKM 25353.57693494  .00031007  00000+0  25283-2 0  9997", "line2": "2 35443  73.9880 317.7188 0072920  97.8759 263.0711 14.97233241869803"}}, "geometry": {"type": "Point", "coordinates": [129.3510949898284, 14.43511581223796]}}]}